GLOBALSTAR M063 [+]     
1 26081U 00008A   24051.98738046 -.00000106  00000+0 -34177-3 0  9995
2 26081  51.9963 301.4949 0005247 104.3045 356.4571 11.86151048100352
GLOBALSTAR M062 [-]     
1 26082U 00008B   24052.05520510 -.00000057  00000+0  29762-3 0  9998
2 26082  51.9842  73.5417 0007421 162.0034 215.3029 12.43428799 99140
GLOBALSTAR M060 [-]     
1 26083U 00008C   24051.96686955 -.00000053  00000+0  38171-3 0  9994
2 26083  52.0045 325.5928 0002758 223.3862 218.3828 12.17628101 93620
GLOBALSTAR M064 [-]     
1 26084U 00008D   24051.91310278 -.00000109  00000+0 -36352-3 0  9994
2 26084  52.0044  46.2005 0001458 204.3821 155.6943 11.88515250109753
GLOBALSTAR M069 [+]     
1 31573U 07020C   24051.84866594 -.00000085  00000+0  10500-3 0  9992
2 31573  51.9928 210.2707 0001684 105.5390  42.0136 12.62256924773637
GLOBALSTAR M072 [+]     
1 31574U 07020D   24051.90879291 -.00000056  00000+0  26784-3 0  9997
2 31574  52.0093 305.9226 0001047  54.3020  26.4106 12.62267856771913
GLOBALSTAR M071 [P]     
1 31576U 07020F   24052.19719340 -.00000092  00000+0  67938-4 0  9996
2 31576  52.0043 214.2836 0002056 114.5430  57.2604 12.62267596773596
